STARLINK-36247          
1 68245U 26054P   26097.19512265  .00201559  00000+0  99730-3 0  9999
2 68245  53.1580 169.7124 0001375  69.5707 290.5463 15.80955110  3286
STARLINK-37043          
1 68246U 26054Q   26097.19362223  .00226603  00000+0  11171-2 0  9996
2 68246  53.1580 169.7028 0001416  89.8910 270.2275 15.80963738  3288
STARLINK-37044          
1 68247U 26054R   26095.61315013  .00513495  00000+0  24103-2 0  9994
2 68247  53.1581 177.6228 0001719  35.1642 324.9495 15.81260472  3032
STARLINK-36997          
1 68248U 26054S   26097.22638979  .00151089  00000+0  96969-3 0  9990
2 68248  53.1582 169.9198 0001258 108.7331 251.3826 15.75300359  3284
STARLINK-37141          
1 68249U 26054T   26097.21277467  .00202810  00000+0  12919-2 0  9992
2 68249  53.1571 169.8296 0001215  68.3498 291.7652 15.75307102  3287
STARLINK-37087          
1 68250U 26054U   26097.21764382  .00254325  00000+0  16029-2 0  9995
2 68250  53.1569 169.8617 0001687  35.9627 324.1507 15.75395691  3280
STARLINK-36274          
1 68251U 26054V   26097.22218105  .00162539  00000+0  10436-2 0  9995
2 68251  53.1575 169.8912 0001079  92.2153 267.8991 15.75252590  3281
STARLINK-37085          
1 68252U 26054W   26097.18912174  .00208832  00000+0  10311-2 0  9997
2 68252  53.1580 169.6717 0001506  61.9727 298.1448 15.80980385  3284
STARLINK-37086          
1 68253U 26054X   26097.18837055  .00306490  00000+0  14914-2 0  9994
2 68253  53.1578 169.6667 0001178 106.0614 254.0539 15.81025170  3282
STARLINK-37084          
1 68254U 26054Y   26097.25003472 -.00059110  00000+0 -38331-3 0  9997
2 68254  53.1595 169.3796 0000908  93.4833 246.7751 15.75287779  4502
STARLINK-37075          
1 68255U 26054Z   26096.93475938  .00447270  00000+0  21415-2 0  9992
2 68255  53.1575 170.9287 0002938  74.0035 286.1311 15.81003525  3240
STARLINK-36333          
1 68256U 26054AA  26097.18612016  .00260591  00000+0  12772-2 0  9996
2 68256  53.1576 169.6521 0001419  82.1167 278.0017 15.80994032  3285
STARLINK-36745          
1 68257U 26054AB  26097.21310318  .00336199  00000+0  21132-2 0  9999
2 68257  53.1571 169.8302 0001010  57.6419 302.4699 15.75218042  3286
STARLINK-36890          
1 68258U 26054AC  26096.93100484  .00370922  00000+0  17923-2 0  9994
2 68258  53.1575 170.9038 0003161  77.2882 282.8494 15.81005026  3244
STARLINK-36323          
1 68259U 26054AD  26097.25003472 -.00014779  00000+0 -92409-4 0  9991
2 68259  53.1589 169.4323 0001453  65.6428 248.8869 15.75236857  4542
STARLINK-37056          
1 68260U 26054AE  26096.93025413  .00411685  00000+0  19788-2 0  9998
2 68260  53.1572 170.8985 0003027  82.3076 277.8290 15.81012339  3240
