[{"OBJECT_NAME":"STARLINK-36247","OBJECT_ID":"2026-054P","EPOCH":"2026-04-07T04:40:58.596960","MEAN_MOTION":15.8095511,"ECCENTRICITY":0.00013756,"INCLINATION":53.158,"RA_OF_ASC_NODE":169.7124,"ARG_OF_PERICENTER":69.5707,"MEAN_ANOMALY":290.5463,"EPHEMERIS_TYPE":0,"CLASSIFICATION_TYPE":"U","NORAD_CAT_ID":68245,"ELEMENT_SET_NO":999,"REV_AT_EPOCH":328,"BSTAR":0.0009972998,"MEAN_MOTION_DOT":0.00201559,"MEAN_MOTION_DDOT":0},{"OBJECT_NAME":"STARLINK-37043","OBJECT_ID":"2026-054Q","EPOCH":"2026-04-07T04:38:48.960672","MEAN_MOTION":15.80963738,"ECCENTRICITY":0.0001416,"INCLINATION":53.158,"RA_OF_ASC_NODE":169.7028,"ARG_OF_PERICENTER":89.891,"MEAN_ANOMALY":270.2275,"EPHEMERIS_TYPE":0,"CLASSIFICATION_TYPE":"U","NORAD_CAT_ID":68246,"ELEMENT_SET_NO":999,"REV_AT_EPOCH":328,"BSTAR":0.0011170729,"MEAN_MOTION_DOT":0.00226603,"MEAN_MOTION_DDOT":0},{"OBJECT_NAME":"STARLINK-37044","OBJECT_ID":"2026-054R","EPOCH":"2026-04-05T14:42:56.171232","MEAN_MOTION":15.81260472,"ECCENTRICITY":0.0001719,"INCLINATION":53.1581,"RA_OF_ASC_NODE":177.6228,"ARG_OF_PERICENTER":35.1642,"MEAN_ANOMALY":324.9495,"EPHEMERIS_TYPE":0,"CLASSIFICATION_TYPE":"U","NORAD_CAT_ID":68247,"ELEMENT_SET_NO":999,"REV_AT_EPOCH":303,"BSTAR":0.0024103,"MEAN_MOTION_DOT":0.00513495,"MEAN_MOTION_DDOT":0},{"OBJECT_NAME":"STARLINK-36997","OBJECT_ID":"2026-054S","EPOCH":"2026-04-07T05:26:00.077856","MEAN_MOTION":15.75300359,"ECCENTRICITY":0.00012581,"INCLINATION":53.1582,"RA_OF_ASC_NODE":169.9198,"ARG_OF_PERICENTER":108.7331,"MEAN_ANOMALY":251.3826,"EPHEMERIS_TYPE":0,"CLASSIFICATION_TYPE":"U","NORAD_CAT_ID":68248,"ELEMENT_SET_NO":999,"REV_AT_EPOCH":328,"BSTAR":0.00096968746,"MEAN_MOTION_DOT":0.00151089,"MEAN_MOTION_DDOT":0},{"OBJECT_NAME":"STARLINK-37141","OBJECT_ID":"2026-054T","EPOCH":"2026-04-07T05:06:23.731488","MEAN_MOTION":15.75307102,"ECCENTRICITY":0.00012154,"INCLINATION":53.1571,"RA_OF_ASC_NODE":169.8296,"ARG_OF_PERICENTER":68.3498,"MEAN_ANOMALY":291.7652,"EPHEMERIS_TYPE":0,"CLASSIFICATION_TYPE":"U","NORAD_CAT_ID":68249,"ELEMENT_SET_NO":999,"REV_AT_EPOCH":328,"BSTAR":0.0012918682,"MEAN_MOTION_DOT":0.0020281,"MEAN_MOTION_DDOT":0},{"OBJECT_NAME":"STARLINK-37087","OBJECT_ID":"2026-054U","EPOCH":"2026-04-07T05:13:24.426048","MEAN_MOTION":15.75395691,"ECCENTRICITY":0.00016875,"INCLINATION":53.1569,"RA_OF_ASC_NODE":169.8617,"ARG_OF_PERICENTER":35.9627,"MEAN_ANOMALY":324.1507,"EPHEMERIS_TYPE":0,"CLASSIFICATION_TYPE":"U","NORAD_CAT_ID":68250,"ELEMENT_SET_NO":999,"REV_AT_EPOCH":328,"BSTAR":0.0016028668,"MEAN_MOTION_DOT":0.00254325,"MEAN_MOTION_DDOT":0},{"OBJECT_NAME":"STARLINK-36274","OBJECT_ID":"2026-054V","EPOCH":"2026-04-07T05:19:56.442720","MEAN_MOTION":15.7525259,"ECCENTRICITY":0.00010793,"INCLINATION":53.1575,"RA_OF_ASC_NODE":169.8912,"ARG_OF_PERICENTER":92.2153,"MEAN_ANOMALY":267.8991,"EPHEMERIS_TYPE":0,"CLASSIFICATION_TYPE":"U","NORAD_CAT_ID":68251,"ELEMENT_SET_NO":999,"REV_AT_EPOCH":328,"BSTAR":0.0010436131,"MEAN_MOTION_DOT":0.00162539,"MEAN_MOTION_DDOT":0},{"OBJECT_NAME":"STARLINK-37085","OBJECT_ID":"2026-054W","EPOCH":"2026-04-07T04:32:20.118336","MEAN_MOTION":15.80980385,"ECCENTRICITY":0.00015063,"INCLINATION":53.158,"RA_OF_ASC_NODE":169.6717,"ARG_OF_PERICENTER":61.9727,"MEAN_ANOMALY":298.1448,"EPHEMERIS_TYPE":0,"CLASSIFICATION_TYPE":"U","NORAD_CAT_ID":68252,"ELEMENT_SET_NO":999,"REV_AT_EPOCH":328,"BSTAR":0.0010310828,"MEAN_MOTION_DOT":0.00208832,"MEAN_MOTION_DDOT":0},{"OBJECT_NAME":"STARLINK-37086","OBJECT_ID":"2026-054X","EPOCH":"2026-04-07T04:31:15.215520","MEAN_MOTION":15.8102517,"ECCENTRICITY":0.00011783,"INCLINATION":53.1578,"RA_OF_ASC_NODE":169.6667,"ARG_OF_PERICENTER":106.0614,"MEAN_ANOMALY":254.0539,"EPHEMERIS_TYPE":0,"CLASSIFICATION_TYPE":"U","NORAD_CAT_ID":68253,"ELEMENT_SET_NO":999,"REV_AT_EPOCH":328,"BSTAR":0.0014914149,"MEAN_MOTION_DOT":0.0030649,"MEAN_MOTION_DDOT":0},{"OBJECT_NAME":"STARLINK-37084","OBJECT_ID":"2026-054Y","EPOCH":"2026-04-07T06:00:02.999808","MEAN_MOTION":15.75287779,"ECCENTRICITY":9.086e-5,"INCLINATION":53.1595,"RA_OF_ASC_NODE":169.3796,"ARG_OF_PERICENTER":93.4833,"MEAN_ANOMALY":246.7751,"EPHEMERIS_TYPE":0,"CLASSIFICATION_TYPE":"U","NORAD_CAT_ID":68254,"ELEMENT_SET_NO":999,"REV_AT_EPOCH":450,"BSTAR":-0.00038330836,"MEAN_MOTION_DOT":-0.0005911,"MEAN_MOTION_DDOT":0},{"OBJECT_NAME":"STARLINK-37075","OBJECT_ID":"2026-054Z","EPOCH":"2026-04-06T22:26:03.210432","MEAN_MOTION":15.81003525,"ECCENTRICITY":0.0002938,"INCLINATION":53.1575,"RA_OF_ASC_NODE":170.9287,"ARG_OF_PERICENTER":74.0035,"MEAN_ANOMALY":286.1311,"EPHEMERIS_TYPE":0,"CLASSIFICATION_TYPE":"U","NORAD_CAT_ID":68255,"ELEMENT_SET_NO":999,"REV_AT_EPOCH":324,"BSTAR":0.0021415,"MEAN_MOTION_DOT":0.0044727,"MEAN_MOTION_DDOT":0},{"OBJECT_NAME":"STARLINK-36333","OBJECT_ID":"2026-054AA","EPOCH":"2026-04-07T04:28:00.781824","MEAN_MOTION":15.80994032,"ECCENTRICITY":0.00014196,"INCLINATION":53.1576,"RA_OF_ASC_NODE":169.6521,"ARG_OF_PERICENTER":82.1167,"MEAN_ANOMALY":278.0017,"EPHEMERIS_TYPE":0,"CLASSIFICATION_TYPE":"U","NORAD_CAT_ID":68256,"ELEMENT_SET_NO":999,"REV_AT_EPOCH":328,"BSTAR":0.0012772383,"MEAN_MOTION_DOT":0.00260591,"MEAN_MOTION_DDOT":0},{"OBJECT_NAME":"STARLINK-36745","OBJECT_ID":"2026-054AB","EPOCH":"2026-04-07T05:06:52.114752","MEAN_MOTION":15.75218042,"ECCENTRICITY":0.00010106,"INCLINATION":53.1571,"RA_OF_ASC_NODE":169.8302,"ARG_OF_PERICENTER":57.6419,"MEAN_ANOMALY":302.4699,"EPHEMERIS_TYPE":0,"CLASSIFICATION_TYPE":"U","NORAD_CAT_ID":68257,"ELEMENT_SET_NO":999,"REV_AT_EPOCH":328,"BSTAR":0.0021132016,"MEAN_MOTION_DOT":0.00336199,"MEAN_MOTION_DDOT":0},{"OBJECT_NAME":"STARLINK-36890","OBJECT_ID":"2026-054AC","EPOCH":"2026-04-06T22:20:38.818176","MEAN_MOTION":15.81005026,"ECCENTRICITY":0.0003161,"INCLINATION":53.1575,"RA_OF_ASC_NODE":170.9038,"ARG_OF_PERICENTER":77.2882,"MEAN_ANOMALY":282.8494,"EPHEMERIS_TYPE":0,"CLASSIFICATION_TYPE":"U","NORAD_CAT_ID":68258,"ELEMENT_SET_NO":999,"REV_AT_EPOCH":324,"BSTAR":0.0017923,"MEAN_MOTION_DOT":0.00370922,"MEAN_MOTION_DDOT":0},{"OBJECT_NAME":"STARLINK-36323","OBJECT_ID":"2026-054AD","EPOCH":"2026-04-07T06:00:02.999808","MEAN_MOTION":15.75236857,"ECCENTRICITY":0.00014532,"INCLINATION":53.1589,"RA_OF_ASC_NODE":169.4323,"ARG_OF_PERICENTER":65.6428,"MEAN_ANOMALY":248.8869,"EPHEMERIS_TYPE":0,"CLASSIFICATION_TYPE":"U","NORAD_CAT_ID":68259,"ELEMENT_SET_NO":999,"REV_AT_EPOCH":454,"BSTAR":-9.2408672e-5,"MEAN_MOTION_DOT":-0.00014779,"MEAN_MOTION_DDOT":0},{"OBJECT_NAME":"STARLINK-37056","OBJECT_ID":"2026-054AE","EPOCH":"2026-04-06T22:19:33.956832","MEAN_MOTION":15.81012339,"ECCENTRICITY":0.0003027,"INCLINATION":53.1572,"RA_OF_ASC_NODE":170.8985,"ARG_OF_PERICENTER":82.3076,"MEAN_ANOMALY":277.829,"EPHEMERIS_TYPE":0,"CLASSIFICATION_TYPE":"U","NORAD_CAT_ID":68260,"ELEMENT_SET_NO":999,"REV_AT_EPOCH":324,"BSTAR":0.0019788,"MEAN_MOTION_DOT":0.00411685,"MEAN_MOTION_DDOT":0}]
